start=new Date('2022-08-10T00:00:00.000Z').valueOf();
sats=[{"TLE_LINE2":"2 45576  53.0552 190.2103 0002623  62.7906 297.3350 15.06407520128312","ELEMENT_SET_NO":"999","LAUNCH_DATE":"2020-04-22","EPOCH":"2022-08-09T07:10:13.799712","NORAD_CAT_ID":"45576","TLE_LINE1":"1 45576U 20025AX  22221.29877083  .00002279  00000-0  17186-3 0  9995","ARG_OF_PERICENTER":"62.7906","MEAN_ELEMENT_THEORY":"SGP4","MEAN_MOTION":"15.06407520","OBJECT_NAME":"STARLINK-1328","SEMIMAJOR_AXIS":"6925.326","MEAN_MOTION_DOT":"0.00002279","TIME_SYSTEM":"UTC","INCLINATION":"53.0552","REV_AT_EPOCH":"12831","SITE":"AFETR","RCS_SIZE":"LARGE","ECCENTRICITY":"0.00026230","CENTER_NAME":"EARTH","RA_OF_ASC_NODE":"190.2103","FILE":"3532882","CLASSIFICATION_TYPE":"U","GP_ID":"209897082","EPHEMERIS_TYPE":"0","COUNTRY_CODE":"US","OBJECT_ID":"2020-025AX","PERIOD":"95.592","DECAY_DATE":null,"OBJECT_TYPE":"PAYLOAD","PERIAPSIS":"545.374","REF_FRAME":"TEME","APOAPSIS":"549.007","MEAN_MOTION_DDOT":"0.0000000000000","MEAN_ANOMALY":"297.3350","BSTAR":"0.00017186000000"},{"TLE_LINE1":"1 45577U 20025AY  22221.91754535  .00013540  00000-0  92201-3 0  9995","NORAD_CAT_ID":"45577","EPOCH":"2022-08-09T22:01:15.918240","LAUNCH_DATE":"2020-04-22","ELEMENT_SET_NO":"999","TLE_LINE2":"2 45577  53.0529 187.4297 0001840  66.9612 293.1571 15.06565217128394","SEMIMAJOR_AXIS":"6924.842","OBJECT_NAME":"STARLINK-1330","MEAN_MOTION":"15.06565217","MEAN_ELEMENT_THEORY":"SGP4","ARG_OF_PERICENTER":"66.9612","TIME_SYSTEM":"UTC","MEAN_MOTION_DOT":"0.00013540","RCS_SIZE":"LARGE","SITE":"AFETR","INCLINATION":"53.0529","REV_AT_EPOCH":"12839","RA_OF_ASC_NODE":"187.4297","CENTER_NAME":"EARTH","ECCENTRICITY":"0.00018400","COUNTRY_CODE":"US","OBJECT_ID":"2020-025AY","EPHEMERIS_TYPE":"0","GP_ID":"209927547","CLASSIFICATION_TYPE":"U","FILE":"3533123","OBJECT_TYPE":"PAYLOAD","DECAY_DATE":null,"PERIOD":"95.582","BSTAR":"0.00092201000000","MEAN_ANOMALY":"293.1571","MEAN_MOTION_DDOT":"0.0000000000000","APOAPSIS":"547.981","REF_FRAME":"TEME","PERIAPSIS":"545.433"},{"OBJECT_TYPE":"PAYLOAD","DECAY_DATE":null,"PERIOD":"95.592","BSTAR":"0.00017916000000","MEAN_ANOMALY":"291.1878","MEAN_MOTION_DDOT":"0.0000000000000","APOAPSIS":"548.379","REF_FRAME":"TEME","PERIAPSIS":"546.023","RA_OF_ASC_NODE":"190.2359","CENTER_NAME":"EARTH","ECCENTRICITY":"0.00017010","COUNTRY_CODE":"US","OBJECT_ID":"2020-025AZ","EPHEMERIS_TYPE":"0","CLASSIFICATION_TYPE":"U","GP_ID":"209895584","FILE":"3532882","TIME_SYSTEM":"UTC","MEAN_MOTION_DOT":"0.00002388","RCS_SIZE":"LARGE","SITE":"AFETR","INCLINATION":"53.0550","REV_AT_EPOCH":"12831","NORAD_CAT_ID":"45578","TLE_LINE1":"1 45578U 20025AZ  22221.29140025  .00002388  00000-0  17916-3 0  9998","EPOCH":"2022-08-09T06:59:36.981600","ELEMENT_SET_NO":"999","LAUNCH_DATE":"2020-04-22","TLE_LINE2":"2 45578  53.0550 190.2359 0001701  68.9292 291.1878 15.06404009128313","SEMIMAJOR_AXIS":"6925.336","OBJECT_NAME":"STARLINK-1331","MEAN_ELEMENT_THEORY":"SGP4","MEAN_MOTION":"15.06404009","ARG_OF_PERICENTER":"68.9292"},{"COUNTRY_CODE":"US","OBJECT_ID":"2020-025BA","EPHEMERIS_TYPE":"0","GP_ID":"209926052","CLASSIFICATION_TYPE":"U","FILE":"3533123","RA_OF_ASC_NODE":"147.9840","CENTER_NAME":"EARTH","ECCENTRICITY":"0.00014620","BSTAR":"-0.00021036000000","MEAN_ANOMALY":"266.8719","MEAN_MOTION_DDOT":"0.0000000000000","APOAPSIS":"548.252","REF_FRAME":"TEME","PERIAPSIS":"546.227","OBJECT_TYPE":"PAYLOAD","DECAY_DATE":null,"PERIOD":"95.593","SEMIMAJOR_AXIS":"6925.374","OBJECT_NAME":"STARLINK-1332","MEAN_ELEMENT_THEORY":"SGP4","MEAN_MOTION":"15.06391682","ARG_OF_PERICENTER":"93.2437","TLE_LINE1":"1 45579U 20025BA  22221.82956658 -.00003413  00000-0 -21036-3 0  9995","NORAD_CAT_ID":"45579","EPOCH":"2022-08-09T19:54:34.552512","LAUNCH_DATE":"2020-04-22","ELEMENT_SET_NO":"999","TLE_LINE2":"2 45579  53.0534 147.9840 0001462  93.2437 266.8719 15.06391682128940","RCS_SIZE":"LARGE","SITE":"AFETR","INCLINATION":"53.0534","REV_AT_EPOCH":"12894","TIME_SYSTEM":"UTC","MEAN_MOTION_DOT":"-0.00003413"},{"RA_OF_ASC_NODE":"199.9100","ECCENTRICITY":"0.00015380","CENTER_NAME":"EARTH","COUNTRY_CODE":"US","EPHEMERIS_TYPE":"0","OBJECT_ID":"2020-025BB","CLASSIFICATION_TYPE":"U","GP_ID":"209896585","FILE":"3532882","OBJECT_TYPE":"PAYLOAD","DECAY_DATE":null,"PERIOD":"95.592","MEAN_ANOMALY":"280.7073","BSTAR":"0.00014999000000","MEAN_MOTION_DDOT":"0.0000000000000","REF_FRAME":"TEME","APOAPSIS":"548.275","PERIAPSIS":"546.145","EPOCH":"2022-08-09T08:44:26.922336","TLE_LINE1":"1 45580U 20025BB  22221.36420049  .00001953  00000-0  14999-3 0  9991","NORAD_CAT_ID":"45580","TLE_LINE2":"2 45580  53.0541 199.9100 0001538  79.4090 280.7073 15.06401160128177","ELEMENT_SET_NO":"999","LAUNCH_DATE":"2020-04-22","SEMIMAJOR_AXIS":"6925.345","MEAN_MOTION":"15.06401160","MEAN_ELEMENT_THEORY":"SGP4","OBJECT_NAME":"STARLINK-1333","ARG_OF_PERICENTER":"79.4090","TIME_SYSTEM":"UTC","MEAN_MOTION_DOT":"0.00001953","RCS_SIZE":"LARGE","SITE":"AFETR","REV_AT_EPOCH":"12817","INCLINATION":"53.0541"},{"PERIOD":"95.592","DECAY_DATE":null,"OBJECT_TYPE":"PAYLOAD","PERIAPSIS":"546.084","APOAPSIS":"548.304","REF_FRAME":"TEME","MEAN_MOTION_DDOT":"0.0000000000000","BSTAR":"0.00014430000000","MEAN_ANOMALY":"281.7426","CENTER_NAME":"EARTH","ECCENTRICITY":"0.00016030","RA_OF_ASC_NODE":"190.1928","FILE":"3532882","GP_ID":"209897319","CLASSIFICATION_TYPE":"U","COUNTRY_CODE":"US","EPHEMERIS_TYPE":"0","OBJECT_ID":"2020-025BC","MEAN_MOTION_DOT":"0.00001869","TIME_SYSTEM":"UTC","REV_AT_EPOCH":"12830","INCLINATION":"53.0532","SITE":"AFETR","RCS_SIZE":"LARGE","ELEMENT_SET_NO":"999","LAUNCH_DATE":"2020-04-22","TLE_LINE2":"2 45581  53.0532 190.1928 0001603  78.3743 281.7426 15.06406500128306","TLE_LINE1":"1 45581U 20025BC  22221.30245597  .00001869  00000-0  14430-3 0  9995","NORAD_CAT_ID":"45581","EPOCH":"2022-08-09T07:15:32.195808","ARG_OF_PERICENTER":"78.3743","OBJECT_NAME":"STARLINK-1335","MEAN_MOTION":"15.06406500","MEAN_ELEMENT_THEORY":"SGP4","SEMIMAJOR_AXIS":"6925.329"},{"MEAN_MOTION_DOT":"0.00001412","TIME_SYSTEM":"UTC","SITE":"AFETR","RCS_SIZE":"LARGE","REV_AT_EPOCH":"12830","INCLINATION":"53.0545","EPOCH":"2022-08-09T07:47:23.472672","TLE_LINE1":"1 45582U 20025BD  22221.32457723  .00001412  00000-0  11367-3 0  9994","NORAD_CAT_ID":"45582","TLE_LINE2":"2 45582  53.0545 190.1058 0001909  69.9109 290.2085 15.06409513128309","LAUNCH_DATE":"2020-04-22","ELEMENT_SET_NO":"999","SEMIMAJOR_AXIS":"6925.319","ARG_OF_PERICENTER":"69.9109","MEAN_MOTION":"15.06409513","MEAN_ELEMENT_THEORY":"SGP4","OBJECT_NAME":"STARLINK-1337","DECAY_DATE":null,"OBJECT_TYPE":"PAYLOAD","PERIOD":"95.592","MEAN_MOTION_DDOT":"0.0000000000000","MEAN_ANOMALY":"290.2085","BSTAR":"0.00011367000000","PERIAPSIS":"545.862","REF_FRAME":"TEME","APOAPSIS":"548.506","RA_OF_ASC_NODE":"190.1058","ECCENTRICITY":"0.00019090","CENTER_NAME":"EARTH","GP_ID":"209896084","CLASSIFICATION_TYPE":"U","OBJECT_ID":"2020-025BD","COUNTRY_CODE":"US","EPHEMERIS_TYPE":"0","FILE":"3532882"},{"INCLINATION":"53.0545","REV_AT_EPOCH":"12839","RCS_SIZE":"LARGE","SITE":"AFETR","TIME_SYSTEM":"UTC","MEAN_MOTION_DOT":"-0.00000480","OBJECT_NAME":"STARLINK-1340","MEAN_MOTION":"15.06405552","MEAN_ELEMENT_THEORY":"SGP4","ARG_OF_PERICENTER":"67.3074","SEMIMAJOR_AXIS":"6925.332","LAUNCH_DATE":"2020-04-22","ELEMENT_SET_NO":"999","TLE_LINE2":"2 45583  53.0545 187.4977 0001711  67.3074 292.8095 15.06405552128390","NORAD_CAT_ID":"45583","TLE_LINE1":"1 45583U 20025BE  22221.90326955 -.00000480  00000-0 -13340-4 0  9991","EPOCH":"2022-08-09T21:40:42.489120","APOAPSIS":"548.381","REF_FRAME":"TEME","PERIAPSIS":"546.012","BSTAR":"-0.00001334000000","MEAN_ANOMALY":"292.8095","MEAN_MOTION_DDOT":"0.0000000000000","PERIOD":"95.592","OBJECT_TYPE":"PAYLOAD","DECAY_DATE":null,"FILE":"3533123","COUNTRY_CODE":"US","EPHEMERIS_TYPE":"0","OBJECT_ID":"2020-025BE","CLASSIFICATION_TYPE":"U","GP_ID":"209926553","CENTER_NAME":"EARTH","ECCENTRICITY":"0.00017110","RA_OF_ASC_NODE":"187.4977"},{"CENTER_NAME":"EARTH","ECCENTRICITY":"0.00018690","RA_OF_ASC_NODE":"189.9343","FILE":"3532882","CLASSIFICATION_TYPE":"U","GP_ID":"209897083","COUNTRY_CODE":"US","EPHEMERIS_TYPE":"0","OBJECT_ID":"2020-025BF","PERIOD":"95.592","DECAY_DATE":null,"OBJECT_TYPE":"PAYLOAD","PERIAPSIS":"545.917","APOAPSIS":"548.506","REF_FRAME":"TEME","MEAN_MOTION_DDOT":"0.0000000000000","BSTAR":"0.00006339700000","MEAN_ANOMALY":"276.2524","LAUNCH_DATE":"2020-04-22","ELEMENT_SET_NO":"999","TLE_LINE2":"2 45584  53.0546 189.9343 0001869  83.8678 276.2524 15.06400584128318","TLE_LINE1":"1 45584U 20025BF  22221.36048785  .00000663  00000-0  63397-4 0  9992","NORAD_CAT_ID":"45584","EPOCH":"2022-08-09T08:39:06.150240","ARG_OF_PERICENTER":"83.8678","OBJECT_NAME":"STARLINK-1343","MEAN_MOTION":"15.06400584","MEAN_ELEMENT_THEORY":"SGP4","SEMIMAJOR_AXIS":"6925.347","MEAN_MOTION_DOT":"0.00000663","TIME_SYSTEM":"UTC","REV_AT_EPOCH":"12831","INCLINATION":"53.0546","SITE":"AFETR","RCS_SIZE":"LARGE"},{"ARG_OF_PERICENTER":"77.7159","MEAN_MOTION":"15.06396644","MEAN_ELEMENT_THEORY":"SGP4","OBJECT_NAME":"STARLINK-1347","SEMIMAJOR_AXIS":"6925.359","TLE_LINE2":"2 45586  53.0529 187.4624 0001807  77.7159 282.4032 15.06396644128385","ELEMENT_SET_NO":"999","LAUNCH_DATE":"2020-04-22","EPOCH":"2022-08-09T21:56:38.073984","TLE_LINE1":"1 45586U 20025BH  22221.91432956 -.00001398  00000-0 -74968-4 0  9996","NORAD_CAT_ID":"45586","REV_AT_EPOCH":"12838","INCLINATION":"53.0529","SITE":"AFETR","RCS_SIZE":"LARGE","MEAN_MOTION_DOT":"-0.00001398","TIME_SYSTEM":"UTC","FILE":"3533123","CLASSIFICATION_TYPE":"U","GP_ID":"209927548","EPHEMERIS_TYPE":"0","COUNTRY_CODE":"US","OBJECT_ID":"2020-025BH","ECCENTRICITY":"0.00018070","CENTER_NAME":"EARTH","RA_OF_ASC_NODE":"187.4624","PERIAPSIS":"545.972","REF_FRAME":"TEME","APOAPSIS":"548.475","MEAN_MOTION_DDOT":"0.0000000000000","MEAN_ANOMALY":"282.4032","BSTAR":"-0.00007496800000","PERIOD":"95.592","DECAY_DATE":null,"OBJECT_TYPE":"PAYLOAD"}];
